NORAD_CAT_ID,OBJECT_NAME,OBJECT_TYPE,EPOCH,MEAN_MOTION,ECCENTRICITY,INCLINATION,RA_OF_ASC_NODE,ARG_OF_PERICENTER,MEAN_ANOMALY,BSTAR,MEAN_MOTION_DOT,MEAN_MOTION_DDOT,TLE_LINE0,TLE_LINE1,TLE_LINE2,SEMIMAJOR_AXIS,PERIOD,APOGEE,PERIGEE,DECAYED
54059.0,STARLINK-5173,PAYLOAD,2024-03-08 14:24:41,15.08851918,0.0001433,53.2186,26.1512,78.0216,282.0937,0.00015459,2.174e-05,0.0,0 STARLINK-5173,1 54059U 22136J   24068.60047808  .00002174  00000-0  15459-3 0  9991,2 54059  53.2186  26.1512 0001433  78.0216 282.0937 15.08851918 76473,6917.844,95.437,540.7,538.718,0.0
54059.0,STARLINK-5173,PAYLOAD,2024-03-09 04:43:10,15.08845703,0.0001342,53.218,23.478,90.4391,269.6755,7.7319e-05,9.43e-06,0.0,0 STARLINK-5173,1 54059U 22136J   24069.19664476  .00000943  00000-0  77319-4 0  9998,2 54059  53.2180  23.4780 0001342  90.4391 269.6755 15.08845703 77043,6917.863,95.437,540.656,538.8,0.0
54059.0,STARLINK-5173,PAYLOAD,2024-03-09 14:15:28,15.08852928,0.0001308,53.2178,21.6911,93.7951,266.3191,0.00018843,2.713e-05,0.0,0 STARLINK-5173,1 54059U 22136J   24069.59407994  .00002713  00000-0  18843-3 0  9995,2 54059  53.2178  21.6911 0001308  93.7951 266.3191 15.08852928 76624,6917.841,95.437,540.611,538.801,0.0
54059.0,STARLINK-5173,PAYLOAD,2024-03-10 02:58:34,15.0884217,0.0001431,53.2197,19.3124,98.4726,261.6428,0.00021296,3.103e-05,0.0,0 STARLINK-5173,1 54059U 22136J   24070.12400799  .00003103  00000-0  21296-3 0  9992,2 54059  53.2197  19.3124 0001431  98.4726 261.6428 15.08842170 77185,6917.874,95.437,540.729,538.749,0.0
54059.0,STARLINK-5173,PAYLOAD,2024-03-10 14:06:15,15.08852396,0.0001498,53.2189,17.2331,90.4882,269.6282,0.00027284,4.058e-05,0.0,0 STARLINK-5173,1 54059U 22136J   24070.58768122  .00004058  00000-0  27284-3 0  9992,2 54059  53.2189  17.2331 0001498  90.4882 269.6282 15.08852396 76772,6917.842,95.437,540.744,538.671,0.0
54059.0,STARLINK-5173,PAYLOAD,2024-03-10 20:27:48,15.08846958,0.000192,53.2184,16.0411,100.7251,259.3957,0.00029065,4.341e-05,0.0,0 STARLINK-5173,1 54059U 22136J   24070.85264363  .00004341  00000-0  29065-3 0  9994,2 54059  53.2184  16.0411 0001920 100.7251 259.3957 15.08846958 76815,6917.859,95.437,541.052,538.396,0.0
54059.0,STARLINK-5173,PAYLOAD,2024-03-11 02:49:21,15.08838665,0.0001312,53.219,14.8538,99.0205,261.0936,9.9587e-05,1.297e-05,0.0,0 STARLINK-5173,1 54059U 22136J   24071.11760640  .00001297  00000-0  99587-4 0  9997,2 54059  53.2190  14.8538 0001312  99.0205 261.0936 15.08838665 77333,6917.884,95.438,540.657,538.842,0.0
54059.0,STARLINK-5173,PAYLOAD,2024-03-12 12:12:27,15.0884683,0.0001406,53.2188,8.6107,98.2404,261.8748,0.00022061,3.225e-05,0.0,0 STARLINK-5173,1 54059U 22136J   24072.50864631  .00003225  00000-0  22061-3 0  9991,2 54059  53.2188   8.6107 0001406  98.2404 261.8748 15.08846830 77544,6917.86,95.437,540.697,538.752,0.0
54059.0,STARLINK-5173,PAYLOAD,2024-03-13 12:03:13,15.08857565,0.0001533,53.2195,4.1541,96.0514,264.0653,0.00042452,6.478e-05,0.0,0 STARLINK-5173,1 54059U 22136J   24073.50224293  .00006478  00000-0  42452-3 0  9995,2 54059  53.2195   4.1541 0001533  96.0514 264.0653 15.08857565 77215,6917.827,95.436,540.752,538.631,0.0
54059.0,STARLINK-5173,PAYLOAD,2024-03-13 20:00:10,15.08834296,0.0001498,53.2183,2.6627,96.5441,263.5722,-9.5087e-05,-1.801e-05,0.0,0 STARLINK-5173,1 54059U 22136J   24073.83345157 -.00001801  00000-0 -95087-4 0  9994,2 54059  53.2183   2.6627 0001498  96.5441 263.5722 15.08834296 77749,6917.898,95.438,540.799,538.727,0.0
54059.0,STARLINK-5173,PAYLOAD,2024-03-14 03:57:05,15.08845321,0.000155,53.2186,1.1777,104.1829,255.9336,0.00020882,3.037e-05,0.0,0 STARLINK-5173,1 54059U 22136J   24074.16464528  .00003037  00000-0  20882-3 0  9996,2 54059  53.2186   1.1777 0001550 104.1829 255.9336 15.08845321 77799,6917.864,95.437,540.801,538.657,0.0
54059.0,STARLINK-5173,PAYLOAD,2024-03-15 02:12:29,15.08837895,0.0001353,53.2176,357.0135,93.8637,266.2509,-4.9439e-06,-3.67e-06,0.0,0 STARLINK-5173,1 54059U 22136J   24075.09200987 -.00000367  00000-0 -49439-5 0  9992,2 54059  53.2176 357.0135 0001353  93.8637 266.2509 15.08837895 77931,6917.887,95.438,540.688,538.816,0.0
54059.0,STARLINK-5173,PAYLOAD,2024-03-15 22:52:30,15.08839894,0.0001531,53.2183,353.146,100.4112,259.7053,-3.1287e-05,-7.86e-06,0.0,0 STARLINK-5173,1 54059U 22136J   24075.95313155 -.00000786  00000-0 -31287-4 0  9995,2 54059  53.2183 353.1460 0001531 100.4112 259.7053 15.08839894 77581,6917.881,95.438,540.805,538.687,0.0
54059.0,STARLINK-5173,PAYLOAD,2024-03-16 03:38:40,15.08838901,0.0001372,53.2179,352.2551,93.1079,267.007,9.3321e-05,1.198e-05,0.0,0 STARLINK-5173,1 54059U 22136J   24076.15185405  .00001198  00000-0  93321-4 0  9996,2 54059  53.2179 352.2551 0001372  93.1079 267.0070 15.08838901 78096,6917.884,95.438,540.698,538.8,0.0
54059.0,STARLINK-5173,PAYLOAD,2024-03-16 22:43:18,15.08838285,0.0001551,53.2185,348.6833,75.8593,284.2571,0.00014047,1.948e-05,0.0,0 STARLINK-5173,1 54059U 22136J   24076.94673805  .00001948  00000-0  14047-3 0  9999,2 54059  53.2185 348.6833 0001551  75.8593 284.2571 15.08838285 77734,6917.886,95.438,540.824,538.678,0.0
54059.0,STARLINK-5173,PAYLOAD,2024-03-17 03:29:27,15.08840053,0.0001597,53.2186,347.7906,74.7037,285.4131,0.00015437,2.17e-05,0.0,0 STARLINK-5173,1 54059U 22136J   24077.14545757  .00002170  00000-0  15437-3 0  9998,2 54059  53.2186 347.7906 0001597  74.7037 285.4131 15.08840053 77761,6917.88,95.438,540.85,538.64,0.0
54059.0,STARLINK-5173,PAYLOAD,2024-03-17 22:34:04,15.08845025,0.0001541,53.2185,344.2226,78.9064,281.2101,0.00017315,2.469e-05,0.0,0 STARLINK-5173,1 54059U 22136J   24077.94033491  .00002469  00000-0  17315-3 0  9991,2 54059  53.2185 344.2226 0001541  78.9064 281.2101 15.08845025 77880,6917.865,95.437,540.796,538.664,0.0
54059.0,STARLINK-5173,PAYLOAD,2024-03-18 03:20:14,15.08843989,0.0001546,53.2186,343.3327,80.0398,280.0769,0.00014091,1.956e-05,0.0,0 STARLINK-5173,1 54059U 22136J   24078.13905526  .00001956  00000-0  14091-3 0  9998,2 54059  53.2186 343.3327 0001546  80.0398 280.0769 15.08843989 78393,6917.868,95.437,540.803,538.664,0.0
54059.0,STARLINK-5173,PAYLOAD,2024-03-18 22:24:51,15.08843171,0.00013,53.2181,339.7634,92.2647,267.8494,6.3495e-05,7.23e-06,0.0,0 STARLINK-5173,1 54059U 22136J   24078.93393378  .00000723  00000-0  63495-4 0  9996,2 54059  53.2181 339.7634 0001300  92.2647 267.8494 15.08843171 78030,6917.871,95.437,540.635,538.836,0.0
54059.0,STARLINK-5173,PAYLOAD,2024-03-19 03:11:01,15.08845316,0.0001307,53.219,338.8716,95.4234,264.6907,7.4034e-05,8.91e-06,0.0,0 STARLINK-5173,1 54059U 22136J   24079.13265247  .00000891  00000-0  74034-4 0  9999,2 54059  53.2190 338.8716 0001307  95.4234 264.6907 15.08845316 78065,6917.864,95.437,540.633,538.825,0.0
54059.0,STARLINK-5173,PAYLOAD,2024-03-19 20:40:13,15.08874719,0.000203,53.2194,335.6128,50.6883,309.4288,0.0003194,4.804e-05,0.0,0 STARLINK-5173,1 54059U 22136J   24079.86126187  .00004804  00000-0  31940-3 0  9994,2 54059  53.2194 335.6128 0002030  50.6883 309.4288 15.08874719 78652,6917.774,95.435,541.044,538.235,0.0
54059.0,STARLINK-5173,PAYLOAD,2024-03-19 23:50:58,15.08908174,0.0001894,53.2185,335.0055,61.7236,298.3947,0.00088854,0.00013908,0.0,0 STARLINK-5173,1 54059U 22136J   24079.99372805  .00013908  00000-0  88854-3 0  9999,2 54059  53.2185 335.0055 0001894  61.7236 298.3947 15.08908174 78670,6917.672,95.433,540.847,538.227,0.0
54059.0,STARLINK-5173,PAYLOAD,2024-03-20 20:31:03,15.08824566,0.0001864,53.218,331.1418,130.6475,229.4679,-0.00013009,-2.357e-05,0.0,0 STARLINK-5173,1 54059U 22136J   24080.85489719 -.00002357  00000-0 -13009-3 0  9997,2 54059  53.2180 331.1418 0001864 130.6475 229.4679 15.08824566 78807,6917.928,95.439,541.082,538.503,0.0
54059.0,STARLINK-5173,PAYLOAD,2024-03-20 22:06:25,15.08821864,0.0002016,53.2187,330.8464,132.2424,227.8739,-0.00036317,-6.061e-05,0.0,0 STARLINK-5173,1 54059U 22136J   24080.92112768 -.00006061  00000-0 -36317-3 0  9995,2 54059  53.2187 330.8464 0002016 132.2424 227.8739 15.08821864 78338,6917.936,95.439,541.195,538.406,0.0
54059.0,STARLINK-5173,PAYLOAD,2024-03-21 09:14:07,15.0882305,0.000123,53.2184,328.7621,74.2742,285.8386,-0.00027359,-4.637e-05,0.0,0 STARLINK-5173,1 54059U 22136J   24081.38481367 -.00004637  00000-0 -27359-3 0  9993,2 54059  53.2184 328.7621 0001230  74.2742 285.8386 15.08823050 78882,6917.932,95.439,540.648,538.946,0.0
54059.0,STARLINK-5173,PAYLOAD,2024-03-21 20:21:49,15.0883601,0.0001653,53.218,326.6783,49.8595,310.2542,-0.00055143,-9.052e-05,0.0,0 STARLINK-5173,1 54059U 22136J   24081.84849035 -.00009052  00000-0 -55143-3 0  9992,2 54059  53.2180 326.6783 0001653  49.8595 310.2542 15.08836010 78952,6917.893,95.438,540.901,538.614,0.0
54059.0,STARLINK-5173,PAYLOAD,2024-03-21 21:57:12,15.08839351,0.0001847,53.2166,326.3834,49.4339,310.6813,-0.0005126,-8.437e-05,0.0,0 STARLINK-5173,1 54059U 22136J   24081.91472730 -.00008437  00000-0 -51260-3 0  9996,2 54059  53.2166 326.3834 0001847  49.4339 310.6813 15.08839351 78481,6917.882,95.438,541.025,538.47,0.0
54059.0,STARLINK-5173,PAYLOAD,2024-03-22 02:43:20,15.08846457,0.000167,53.2186,325.4922,92.3759,267.7425,-0.00023092,-3.962e-05,0.0,0 STARLINK-5173,1 54059U 22136J   24082.11343608 -.00003962  00000-0 -23092-3 0  9990,2 54059  53.2186 325.4922 0001670  92.3759 267.7425 15.08846457 78990,6917.861,95.437,540.881,538.57,0.0
54059.0,STARLINK-5173,PAYLOAD,2024-03-22 20:12:38,15.08822813,0.0001207,53.2177,322.2181,107.8334,252.279,0.00023794,3.499e-05,0.0,0 STARLINK-5173,1 54059U 22136J   24082.84210655  .00003499  00000-0  23794-3 0  9997,2 54059  53.2177 322.2181 0001207 107.8334 252.2790 15.08822813 79107,6917.933,95.439,540.633,538.963,0.0
54059.0,STARLINK-5173,PAYLOAD,2024-03-22 21:48:01,15.08824457,0.0001418,53.2177,321.9203,126.6465,233.4657,0.00021576,3.146e-05,0.0,0 STARLINK-5173,1 54059U 22136J   24082.90834526  .00003146  00000-0  21576-3 0  9998,2 54059  53.2177 321.9203 0001418 126.6465 233.4657 15.08824457 78632,6917.928,95.439,540.774,538.812,0.0
